*******************************************************************************
 Revised: June 21, 2016                 Mars                            499 / 4
 
 PHYSICAL DATA (updated 2019-Oct-29):
  Vol. mean radius (km) = 3389.92+-0.04   Density (g/cm^3)      =  3.933(5+-4)
  Mass x10^23 (kg)      =    6.4171       Flattening, f         =  1/169.779
  Volume (x10^10 km^3)  =   16.318        Equatorial radius (km)=  3396.19
  Sidereal rot. period  =   24.622962 hr  Sid. rot. rate, rad/s =  0.0000708822 
  Mean solar day (sol)  =   88775.24415 s Polar gravity m/s^2   =  3.758
  Core radius (km)      = ~1700           Equ. gravity  m/s^2   =  3.71
  Geometric Albedo      =    0.150                                              

  GM (km^3/s^2)         = 42828.375214    Mass ratio (Sun/Mars) = 3098703.59
  GM 1-sigma (km^3/s^2) = +- 0.00028      Mass of atmosphere, kg= ~ 2.5 x 10^16
  Mean temperature (K)  =  210            Atmos. pressure (bar) =    0.0056 
  Obliquity to orbit    =   25.19 deg     Max. angular diam.    =  17.9"
  Mean sidereal orb per =    1.88081578 y Visual mag. V(1,0)    =  -1.52
  Mean sidereal orb per =  686.98 d       Orbital speed,  km/s  =  24.13
  Hill's sphere rad. Rp =  319.8          Escape speed, km/s    =   5.027
                                 Perihelion  Aphelion    Mean
  Solar Constant (W/m^2)         717         493         589
  Maximum Planetary IR (W/m^2)   470         315         390
  Minimum Planetary IR (W/m^2)    30          30          30
*******************************************************************************


*******************************************************************************
Ephemeris / WWW_USER Sat Feb 25 15:47:05 2023 Pasadena, USA      / Horizons
*******************************************************************************
Target body name: Mars (499)                      {source: mar097}
Center body name: Solar System Barycenter (0)     {source: DE441}
Center-site name: BODY CENTER
*******************************************************************************
Start time      : A.D. 2023-May-01 00:00:00.0000 TDB
Stop  time      : A.D. 2023-May-30 00:00:00.0000 TDB
Step-size       : 1440 minutes
*******************************************************************************
Center geodetic : 0.0, 0.0, 0.0                   {E-lon(deg),Lat(deg),Alt(km)}
Center cylindric: 0.0, 0.0, 0.0                   {E-lon(deg),Dxy(km),Dz(km)}
Center radii    : (undefined)
Output units    : KM-S
Calendar mode   : Mixed Julian/Gregorian
Output type     : GEOMETRIC cartesian states
Output format   : 3 (position, velocity, LT, range, range-rate)
Reference frame : Ecliptic of J2000.0
*******************************************************************************
            JDTDB,            Calendar Date (TDB),                      X,                      Y,                      Z,                     VX,                     VY,                     VZ,                     LT,                     RG,                     RR,
**************************************************************************************************************************************************************************************************************************************************************************
$$SOE
2460065.500000000, A.D. 2023-May-01 00:00:00.0000, -1.999096486412697E+08,  1.491275591185231E+08,  8.031667295731254E+06, -1.364283359076004E+01, -1.731733479312864E+01, -2.784765625349017E-02,  8.323570793846451E+02,  2.495343747624239E+08,  5.795535724899515E-01,
2460066.500000000, A.D. 2023-May-02 00:00:00.0000, -2.010819716042931E+08,  1.476265433762218E+08,  8.029003272268474E+06, -1.349413909238045E+01, -1.742820367074673E+01, -3.381872148509668E-02,  8.325215919652603E+02,  2.495836943933384E+08,  5.621004142311649E-01,
2460067.500000000, A.D. 2023-May-03 00:00:00.0000, -2.022414130268258E+08,  1.461159994944405E+08,  8.025823573171809E+06, -1.334465113054556E+01, -1.753789288273498E+01, -3.978452227462537E-02,  8.326810710282723E+02,  2.496315050136383E+08,  5.446229627152196E-01,
2460068.500000000, A.D. 2023-May-04 00:00:00.0000, -2.033879046909991E+08,  1.445960295690178E+08,  8.022128664864697E+06, -1.319437751025708E+01, -1.764639847793559E+01, -4.574479437669066E-02,  8.328355096920648E+02,  2.496778045602669E+08,  5.271220203835935E-01,
2460069.500000000, A.D. 2023-May-05 00:00:00.0000, -2.045213790544501E+08,  1.430667360369100E+08,  8.017919037429422E+06, -1.304332603854932E+01, -1.775371650798625E+01, -5.169926776759670E-02,  8.329849013116216E+02,  2.497225910410984E+08,  5.095984086378703E-01,
2460070.500000000, A.D. 2023-May-06 00:00:00.0000, -2.056417692496218E+08,  1.415282216740035E+08,  8.013195204546332E+06, -1.289150452709434E+01, -1.785984303798531E+01, -5.764766557936518E-02,  8.331292394777597E+02,  2.497658625347082E+08,  4.920529629378075E-01,
2460071.500000000, A.D. 2023-May-07 00:00:00.0000, -2.067490090832551E+08,  1.399805895929806E+08,  8.007957703505665E+06, -1.273892078545696E+01, -1.796477416591897E+01, -6.358970889053150E-02,  8.332685180168343E+02,  2.498076171902840E+08,  4.744865155323295E-01,
2460072.500000000, A.D. 2023-May-08 00:00:00.0000, -2.078430330358709E+08,  1.384239432413653E+08,  8.002207095209457E+06, -1.258558261844330E+01, -1.806850603288785E+01, -6.952511947179474E-02,  8.334027309906048E+02,  2.498478532275862E+08,  4.568998873075794E-01,
2460073.500000000, A.D. 2023-May-09 00:00:00.0000, -2.089237762611057E+08,  1.368583863996350E+08,  7.995943964091539E+06, -1.243149782410666E+01, -1.817103481787036E+01, -7.545362117716881E-02,  8.335318726956308E+02,  2.498865689367662E+08,  4.392938890193663E-01,
2460074.500000000, A.D. 2023-May-10 00:00:00.0000, -2.099911745849949E+08,  1.352840231792365E+08,  7.989168917984836E+06, -1.227667418428152E+01, -1.827235672141656E+01, -8.137494388164690E-02,  8.336559376621600E+02,  2.499237626780337E+08,  4.216693219306479E-01,
2460075.500000000, A.D. 2023-May-11 00:00:00.0000, -2.110451645054010E+08,  1.337009580205836E+08,  7.981882588030376E+06, -1.212111945768036E+01, -1.837246794969931E+01, -8.728882580649255E-02,  8.337749206532184E+02,  2.499594328813833E+08,  4.040269796403071E-01,
2460076.500000000, A.D. 2023-May-12 00:00:00.0000, -2.120856831916306E+08,  1.321092956912469E+08,  7.974085628667668E+06, -1.196484139165910E+01, -1.847136471277789E+01, -9.319500749136278E-02,  8.338888166644263E+02,  2.499935780465397E+08,  3.863676577339886E-01,
2460077.500000000, A.D. 2023-May-13 00:00:00.0000, -2.131126684840908E+08,  1.305091412843433E+08,  7.965778717642650E+06, -1.180784774275649E+01, -1.856904323733403E+01, -9.909322263512177E-02,  8.339976209241115E+02,  2.500261967429916E+08,  3.686921636743685E-01,
2460078.500000000, A.D. 2023-May-14 00:00:00.0000, -2.141260588938622E+08,  1.289006002169002E+08,  7.956962555959255E+06, -1.165014628311466E+01, -1.866549977598975E+01, -1.049831958678009E-01,  8.341013288929474E+02,  2.500572876098831E+08,  3.510013171271068E-01,
2460079.500000000, A.D. 2023-May-15 00:00:00.0000, -2.151257936022750E+08,  1.272837782280483E+08,  7.947637867798738E+06, -1.149174478972992E+01, -1.876073060772035E+01, -1.108646482812130E-01,  8.341999362631243E+02,  2.500868493557654E+08,  3.332959403265849E-01,
2460080.500000000, A.D. 2023-May-16 00:00:00.0000, -2.161118124606389E+08,  1.256587813771659E+08,  7.937805400481157E+06, -1.133265102905873E+01, -1.885473203993984E+01, -1.167373053771756E-01,  8.342934389577204E+02,  2.501148807584080E+08,  3.155768432872350E-01,
2460081.500000000, A.D. 2023-May-17 00:00:00.0000, -2.170840559900795E+08,  1.240257160421972E+08,  7.927465924465545E+06, -1.117287274885470E+01, -1.894750041108530E+01, -1.226009018934668E-01,  8.343818331305380E+02,  2.501413806647498E+08,  2.978448148709619E-01,
2460082.500000000, A.D. 2023-May-18 00:00:00.0000, -2.180424653813016E+08,  1.223846889181825E+08,  7.916620233309828E+06, -1.101241768155786E+01, -1.903903207962936E+01, -1.284551801868670E-01,  8.344651151659110E+02,  2.501663479908415E+08,  2.801006306843539E-01,
2460083.500000000, A.D. 2023-May-19 00:00:00.0000, -2.189869824942572E+08,  1.207358070158215E+08,  7.905269143570662E+06, -1.085129355721832E+01, -1.912932340351766E+01, -1.342998826474853E-01,  8.345432816781018E+02,  2.501897817216645E+08,  2.623450737848710E-01,
2460084.500000000, A.D. 2023-May-20 00:00:00.0000, -2.199175498579268E+08,  1.190791776599290E+08,  7.893413494727008E+06, -1.068950811482177E+01, -1.921837073599743E+01, -1.401347453024293E-01,  8.346163295106599E+02,  2.502116809109387E+08,  2.445789456326060E-01,
2460085.500000000, A.D. 2023-May-21 00:00:00.0000, -2.208341106703417E+08,  1.174149084878550E+08,  7.881054149192862E+06, -1.052706910243700E+01, -1.930617044396111E+01, -1.459594987261186E-01,  8.346842557362842E+02,  2.502320446810812E+08,  2.268030564693051E-01,
2460086.500000000, A.D. 2023-May-22 00:00:00.0000, -2.217366087987162E+08,  1.157431074480367E+08,  7.868191992367767E+06, -1.036398427356054E+01, -1.939271892690464E+01, -1.517738716769799E-01,  8.347470576570613E+02,  2.502508722232780E+08,  2.090182126829705E-01,
2460087.500000000, A.D. 2023-May-23 00:00:00.0000, -2.226249887794748E+08,  1.140638827986691E+08,  7.854827932627194E+06, -1.020026138613395E+01, -1.947801261999659E+01, -1.575775926553327E-01,  8.348047328044192E+02,  2.502681627974701E+08,  1.912252145306887E-01,
2460088.500000000, A.D. 2023-May-24 00:00:00.0000, -2.234991958181673E+08,  1.123773431063136E+08,  7.840962901233613E+06, -1.003590819664637E+01, -1.956204798343170E+01, -1.633703926596084E-01,  8.348572789384662E+02,  2.502839157321544E+08,  1.734248557050291E-01,
2460089.500000000, A.D. 2023-May-25 00:00:00.0000, -2.243591757894549E+08,  1.106835972444001E+08,  7.826597852246501E+06, -9.870932447842886E+00, -1.964482148757189E+01, -1.691520104354902E-01,  8.349046940472070E+02,  2.502981304241502E+08,  1.556179184210814E-01,
